start=new Date('2023-03-08T00:00:00.000Z').valueOf();
sats=[{"MEAN_MOTION_DDOT":"0.0000000000000","CENTER_NAME":"EARTH","REV_AT_EPOCH":"10282","GP_ID":"227672702","FILE":"3854072","APOAPSIS":"548.173","ELEMENT_SET_NO":"999","ARG_OF_PERICENTER":"88.4039","MEAN_MOTION_DOT":"0.00007818","RCS_SIZE":"LARGE","EPHEMERIS_TYPE":"0","MEAN_ELEMENT_THEORY":"SGP4","OBJECT_NAME":"STARLINK-2562","TLE_LINE1":"1 48288U 21036N   23066.73687839  .00007818  00000-0  54311-3 0  9991","ECCENTRICITY":"0.00014010","NORAD_CAT_ID":"48288","PERIOD":"95.592","OBJECT_ID":"2021-036N","TIME_SYSTEM":"UTC","MEAN_MOTION":"15.06403536","OBJECT_TYPE":"PAYLOAD","RA_OF_ASC_NODE":"330.5162","EPOCH":"2023-03-07T17:41:06.292896","LAUNCH_DATE":"2021-04-29","TLE_LINE2":"2 48288  53.0533 330.5162 0001401  88.4039 271.7111 15.06403536102825","COUNTRY_CODE":"US","BSTAR":"0.00054311000000","PERIAPSIS":"546.232","REF_FRAME":"TEME","CLASSIFICATION_TYPE":"U","MEAN_ANOMALY":"271.7111","DECAY_DATE":null,"INCLINATION":"53.0533","SEMIMAJOR_AXIS":"6925.338","SITE":"AFETR"},{"REF_FRAME":"TEME","MEAN_ANOMALY":"284.1548","CLASSIFICATION_TYPE":"U","TLE_LINE2":"2 48289  53.0532 333.2188 0001365  75.9592 284.1548 15.06400884102732","PERIAPSIS":"546.266","COUNTRY_CODE":"US","BSTAR":"0.00047874000000","RA_OF_ASC_NODE":"333.2188","OBJECT_TYPE":"PAYLOAD","EPOCH":"2023-03-07T03:17:18.163392","LAUNCH_DATE":"2021-04-29","TIME_SYSTEM":"UTC","MEAN_MOTION":"15.06400884","SITE":"AFETR","INCLINATION":"53.0532","SEMIMAJOR_AXIS":"6925.346","DECAY_DATE":null,"ELEMENT_SET_NO":"999","GP_ID":"227673949","APOAPSIS":"548.156","FILE":"3854072","MEAN_MOTION_DDOT":"0.0000000000000","CENTER_NAME":"EARTH","REV_AT_EPOCH":"10273","NORAD_CAT_ID":"48289","OBJECT_ID":"2021-036P","PERIOD":"95.592","ECCENTRICITY":"0.00013650","OBJECT_NAME":"STARLINK-2545","TLE_LINE1":"1 48289U 21036P   23066.13701578  .00006857  00000-0  47874-3 0  9991","EPHEMERIS_TYPE":"0","RCS_SIZE":"LARGE","MEAN_ELEMENT_THEORY":"SGP4","ARG_OF_PERICENTER":"75.9592","MEAN_MOTION_DOT":"0.00006857"},{"TLE_LINE2":"2 48290  53.0549 333.2289 0001524  77.3015 282.8144 15.06406477102738","BSTAR":"0.00077853000000","COUNTRY_CODE":"US","PERIAPSIS":"546.138","REF_FRAME":"TEME","CLASSIFICATION_TYPE":"U","MEAN_ANOMALY":"282.8144","MEAN_MOTION":"15.06406477","TIME_SYSTEM":"UTC","OBJECT_TYPE":"PAYLOAD","RA_OF_ASC_NODE":"333.2289","LAUNCH_DATE":"2021-04-29","EPOCH":"2023-03-07T03:11:59.504640","INCLINATION":"53.0549","SEMIMAJOR_AXIS":"6925.329","SITE":"AFETR","DECAY_DATE":null,"GP_ID":"227673688","FILE":"3854072","APOAPSIS":"548.249","ELEMENT_SET_NO":"999","MEAN_MOTION_DDOT":"0.0000000000000","CENTER_NAME":"EARTH","REV_AT_EPOCH":"10273","TLE_LINE1":"1 48290U 21036Q   23066.13332760  .00011336  00000-0  77853-3 0  9994","OBJECT_NAME":"STARLINK-2540","ECCENTRICITY":"0.00015240","NORAD_CAT_ID":"48290","PERIOD":"95.592","OBJECT_ID":"2021-036Q","ARG_OF_PERICENTER":"77.3015","MEAN_MOTION_DOT":"0.00011336","RCS_SIZE":"LARGE","EPHEMERIS_TYPE":"0","MEAN_ELEMENT_THEORY":"SGP4"},{"MEAN_MOTION":"15.06393205","TIME_SYSTEM":"UTC","OBJECT_TYPE":"PAYLOAD","RA_OF_ASC_NODE":"330.5634","LAUNCH_DATE":"2021-04-29","EPOCH":"2023-03-07T17:26:32.251488","TLE_LINE2":"2 48291  53.0552 330.5634 0001228 107.2614 252.8510 15.06393205102824","BSTAR":"0.00099605000000","COUNTRY_CODE":"US","PERIAPSIS":"546.384","REF_FRAME":"TEME","CLASSIFICATION_TYPE":"U","MEAN_ANOMALY":"252.8510","DECAY_DATE":null,"INCLINATION":"53.0552","SEMIMAJOR_AXIS":"6925.369","SITE":"AFETR","MEAN_MOTION_DDOT":"0.0000000000000","CENTER_NAME":"EARTH","REV_AT_EPOCH":"10282","GP_ID":"227672953","APOAPSIS":"548.085","FILE":"3854072","ELEMENT_SET_NO":"999","ARG_OF_PERICENTER":"107.2614","MEAN_MOTION_DOT":"0.00014583","RCS_SIZE":"LARGE","EPHEMERIS_TYPE":"0","MEAN_ELEMENT_THEORY":"SGP4","OBJECT_NAME":"STARLINK-2555","TLE_LINE1":"1 48291U 21036R   23066.72676217  .00014583  00000-0  99605-3 0  9994","ECCENTRICITY":"0.00012280","NORAD_CAT_ID":"48291","OBJECT_ID":"2021-036R","PERIOD":"95.593"},{"NORAD_CAT_ID":"48292","OBJECT_ID":"2021-036S","PERIOD":"95.592","ECCENTRICITY":"0.00013330","OBJECT_NAME":"STARLINK-2542","TLE_LINE1":"1 48292U 21036S   23066.73784672  .00022674  00000-0  15359-2 0  9994","EPHEMERIS_TYPE":"0","RCS_SIZE":"LARGE","MEAN_ELEMENT_THEORY":"SGP4","ARG_OF_PERICENTER":"99.7956","MEAN_MOTION_DOT":"0.00022674","ELEMENT_SET_NO":"999","GP_ID":"227673202","APOAPSIS":"548.116","FILE":"3854072","MEAN_MOTION_DDOT":"0.0000000000000","CENTER_NAME":"EARTH","REV_AT_EPOCH":"10282","SITE":"AFETR","INCLINATION":"53.0542","SEMIMAJOR_AXIS":"6925.328","DECAY_DATE":null,"REF_FRAME":"TEME","MEAN_ANOMALY":"260.3183","CLASSIFICATION_TYPE":"U","TLE_LINE2":"2 48292  53.0542 330.6896 0001333  99.7956 260.3183 15.06406646102820","PERIAPSIS":"546.270","BSTAR":"0.00153590000000","COUNTRY_CODE":"US","RA_OF_ASC_NODE":"330.6896","OBJECT_TYPE":"PAYLOAD","LAUNCH_DATE":"2021-04-29","EPOCH":"2023-03-07T17:42:29.956608","TIME_SYSTEM":"UTC","MEAN_MOTION":"15.06406646"},{"NORAD_CAT_ID":"48293","PERIOD":"95.593","OBJECT_ID":"2021-036T","TLE_LINE1":"1 48293U 21036T   23066.71939209  .00015506  00000-0  10578-2 0  9995","OBJECT_NAME":"STARLINK-2550","ECCENTRICITY":"0.00012990","RCS_SIZE":"LARGE","EPHEMERIS_TYPE":"0","MEAN_ELEMENT_THEORY":"SGP4","ARG_OF_PERICENTER":"73.6301","MEAN_MOTION_DOT":"0.00015506","ELEMENT_SET_NO":"999","GP_ID":"227673450","APOAPSIS":"548.139","FILE":"3854072","MEAN_MOTION_DDOT":"0.0000000000000","CENTER_NAME":"EARTH","REV_AT_EPOCH":"10282","SITE":"AFETR","INCLINATION":"53.0525","SEMIMAJOR_AXIS":"6925.374","DECAY_DATE":null,"REF_FRAME":"TEME","CLASSIFICATION_TYPE":"U","MEAN_ANOMALY":"286.4831","TLE_LINE2":"2 48293  53.0525 330.6047 0001299  73.6301 286.4831 15.06391600102828","BSTAR":"0.00105780000000","COUNTRY_CODE":"US","PERIAPSIS":"546.340","OBJECT_TYPE":"PAYLOAD","RA_OF_ASC_NODE":"330.6047","EPOCH":"2023-03-07T17:15:55.476576","LAUNCH_DATE":"2021-04-29","TIME_SYSTEM":"UTC","MEAN_MOTION":"15.06391600"},{"PERIAPSIS":"546.335","COUNTRY_CODE":"US","BSTAR":"0.00083921000000","TLE_LINE2":"2 48294  53.0522 333.5996 0001231 114.2326 245.8792 15.06408373102726","MEAN_ANOMALY":"245.8792","CLASSIFICATION_TYPE":"U","REF_FRAME":"TEME","MEAN_MOTION":"15.06408373","TIME_SYSTEM":"UTC","LAUNCH_DATE":"2021-04-29","EPOCH":"2023-03-07T01:15:12.674592","RA_OF_ASC_NODE":"333.5996","OBJECT_TYPE":"PAYLOAD","SEMIMAJOR_AXIS":"6925.323","INCLINATION":"53.0522","SITE":"AFETR","DECAY_DATE":null,"APOAPSIS":"548.040","FILE":"3854072","GP_ID":"227674188","ELEMENT_SET_NO":"999","REV_AT_EPOCH":"10272","MEAN_MOTION_DDOT":"0.0000000000000","CENTER_NAME":"EARTH","ECCENTRICITY":"0.00012310","OBJECT_NAME":"STARLINK-2533","TLE_LINE1":"1 48294U 21036U   23066.05223003  .00012243  00000-0  83921-3 0  9999","PERIOD":"95.592","OBJECT_ID":"2021-036U","NORAD_CAT_ID":"48294","MEAN_MOTION_DOT":"0.00012243","ARG_OF_PERICENTER":"114.2326","MEAN_ELEMENT_THEORY":"SGP4","EPHEMERIS_TYPE":"0","RCS_SIZE":"LARGE"},{"LAUNCH_DATE":"2021-04-29","EPOCH":"2023-03-07T17:05:18.718080","RA_OF_ASC_NODE":"330.6284","OBJECT_TYPE":"PAYLOAD","MEAN_MOTION":"15.06376166","TIME_SYSTEM":"UTC","MEAN_ANOMALY":"265.2351","CLASSIFICATION_TYPE":"U","REF_FRAME":"TEME","PERIAPSIS":"546.503","COUNTRY_CODE":"US","BSTAR":"0.00447930000000","TLE_LINE2":"2 48295  53.0539 330.6284 0001132  94.8767 265.2351 15.06376166102827","DECAY_DATE":null,"SITE":"AFETR","SEMIMAJOR_AXIS":"6925.422","INCLINATION":"53.0539","REV_AT_EPOCH":"10282","MEAN_MOTION_DDOT":"0.0000000000000","CENTER_NAME":"EARTH","ELEMENT_SET_NO":"999","FILE":"3854072","APOAPSIS":"548.071","GP_ID":"227672454","MEAN_ELEMENT_THEORY":"SGP4","EPHEMERIS_TYPE":"0","RCS_SIZE":"LARGE","MEAN_MOTION_DOT":"0.00067031","ARG_OF_PERICENTER":"94.8767","OBJECT_ID":"2021-036V","PERIOD":"95.594","NORAD_CAT_ID":"48295","ECCENTRICITY":"0.00011320","OBJECT_NAME":"STARLINK-2535","TLE_LINE1":"1 48295U 21036V   23066.71202220  .00067031  00000-0  44793-2 0  9999"},{"ELEMENT_SET_NO":"999","GP_ID":"227672703","FILE":"3854072","APOAPSIS":"548.393","MEAN_MOTION_DDOT":"0.0000000000000","CENTER_NAME":"EARTH","REV_AT_EPOCH":"10282","NORAD_CAT_ID":"48296","PERIOD":"95.592","OBJECT_ID":"2021-036W","OBJECT_NAME":"STARLINK-2546","TLE_LINE1":"1 48296U 21036W   23066.70833557  .00010125  00000-0  69765-3 0  9991","ECCENTRICITY":"0.00017030","RCS_SIZE":"LARGE","EPHEMERIS_TYPE":"0","MEAN_ELEMENT_THEORY":"SGP4","ARG_OF_PERICENTER":"90.9532","MEAN_MOTION_DOT":"0.00010125","REF_FRAME":"TEME","CLASSIFICATION_TYPE":"U","MEAN_ANOMALY":"269.1652","TLE_LINE2":"2 48296  53.0541 330.6510 0001703  90.9532 269.1652 15.06399823102826","BSTAR":"0.00069765000000","COUNTRY_CODE":"US","PERIAPSIS":"546.035","OBJECT_TYPE":"PAYLOAD","RA_OF_ASC_NODE":"330.6510","EPOCH":"2023-03-07T17:00:00.193248","LAUNCH_DATE":"2021-04-29","TIME_SYSTEM":"UTC","MEAN_MOTION":"15.06399823","SITE":"AFETR","INCLINATION":"53.0541","SEMIMAJOR_AXIS":"6925.349","DECAY_DATE":null},{"MEAN_MOTION_DDOT":"0.0000000000000","CENTER_NAME":"EARTH","REV_AT_EPOCH":"10282","ELEMENT_SET_NO":"999","GP_ID":"227673950","FILE":"3854072","APOAPSIS":"548.280","RCS_SIZE":"LARGE","EPHEMERIS_TYPE":"0","MEAN_ELEMENT_THEORY":"SGP4","ARG_OF_PERICENTER":"90.9931","MEAN_MOTION_DOT":"0.00013243","NORAD_CAT_ID":"48297","OBJECT_ID":"2021-036X","PERIOD":"95.592","TLE_LINE1":"1 48297U 21036X   23066.70465216  .00013243  00000-0  90626-3 0  9999","OBJECT_NAME":"STARLINK-2544","ECCENTRICITY":"0.00015460","OBJECT_TYPE":"PAYLOAD","RA_OF_ASC_NODE":"330.6691","EPOCH":"2023-03-07T16:54:41.946624","LAUNCH_DATE":"2021-04-29","TIME_SYSTEM":"UTC","MEAN_MOTION":"15.06401325","REF_FRAME":"TEME","CLASSIFICATION_TYPE":"U","MEAN_ANOMALY":"269.1235","TLE_LINE2":"2 48297  53.0530 330.6691 0001546  90.9931 269.1235 15.06401325102821","COUNTRY_CODE":"US","BSTAR":"0.00090626000000","PERIAPSIS":"546.139","DECAY_DATE":null,"SITE":"AFETR","INCLINATION":"53.0530","SEMIMAJOR_AXIS":"6925.344"}];
